[{"OBJECT_NAME":"STARLINK-31724","OBJECT_ID":"2024-074W","EPOCH":"2026-03-09T00:45:34.267104","MEAN_MOTION":15.27562029,"ECCENTRICITY":0.00023835,"INCLINATION":43.002,"RA_OF_ASC_NODE":311.2051,"ARG_OF_PERICENTER":41.9206,"MEAN_ANOMALY":318.1827,"EPHEMERIS_TYPE":0,"CLASSIFICATION_TYPE":"U","NORAD_CAT_ID":59554,"ELEMENT_SET_NO":999,"REV_AT_EPOCH":10632,"BSTAR":6.095083e-6,"MEAN_MOTION_DOT":-9.5e-7,"MEAN_MOTION_DDOT":0},{"OBJECT_NAME":"OBJECT B","OBJECT_ID":"2024-205B","EPOCH":"2026-03-09T23:46:05.115936","MEAN_MOTION":15.28158697,"ECCENTRICITY":0.00105957,"INCLINATION":97.4192,"RA_OF_ASC_NODE":146.9311,"ARG_OF_PERICENTER":34.0947,"MEAN_ANOMALY":326.0972,"EPHEMERIS_TYPE":0,"CLASSIFICATION_TYPE":"U","NORAD_CAT_ID":61895,"ELEMENT_SET_NO":999,"REV_AT_EPOCH":7352,"BSTAR":0.00054154807,"MEAN_MOTION_DOT":0.00014827,"MEAN_MOTION_DDOT":0}]
